SENTINEL-1A
1 39634C 14016A   22190.00000000  .00000000  00000-0  58161-4 0    09
2 39634  97.2281 263.9884 0001598 100.6011  97.3949 15.38501996    06
